CCSDS_OMM_VERS,COMMENT,CREATION_DATE,ORIGINATOR,OBJECT_NAME,OBJECT_ID,CENTER_NAME,REF_FRAME,TIME_SYSTEM,MEAN_ELEMENT_THEORY,EPOCH,MEAN_MOTION,ECCENTRICITY,INCLINATION,RA_OF_ASC_NODE,ARG_OF_PERICENTER,MEAN_ANOMALY,EPHEMERIS_TYPE,CLASSIFICATION_TYPE,NORAD_CAT_ID,ELEMENT_SET_NO,REV_AT_EPOCH,BSTAR,MEAN_MOTION_DOT,MEAN_MOTION_DDOT,SEMIMAJOR_AXIS,PERIOD,APOAPSIS,PERIAPSIS,OBJECT_TYPE,RCS_SIZE,COUNTRY_CODE,LAUNCH_DATE,SITE,DECAY_DATE,FILE,GP_ID,TLE_LINE0,TLE_LINE1,TLE_LINE2
2,GENERATED VIA SPACE-TRACK.ORG API,2015-10-14T15:19:12,18 SPCS,LEASAT 5,1990-002B,EARTH,TEME,UTC,SGP4,2015-10-13T06:42:56.455776,0.99599052,0.0001791,11.4723,16.8579,244.3107,228.8803,0,U,20410,999,7957,0.0,-8.4e-07,0,42354.384,1445.796,35983.834,35968.663,PAYLOAD,LARGE,US,1990-01-09,AFETR,,1939668,101056890,0 LEASAT 5,1 20410U 90002B   15286.27982009 -.00000084 +00000-0 +00000-0 0  9990,2 20410 011.4723 016.8579 0001791 244.3107 228.8803 00.99599052079579
2,GENERATED VIA SPACE-TRACK.ORG API,2015-10-14T14:34:09,18 SPCS,LEASAT 5,1990-002B,EARTH,TEME,UTC,SGP4,2015-10-14T05:43:33.309408,0.99599364,0.0001819,11.4728,16.8497,245.8752,211.1,0,U,20410,999,7958,0.0,-9.9e-07,0,42354.295,1445.792,35983.864,35968.456,PAYLOAD,LARGE,US,1990-01-09,AFETR,,1939602,101051790,0 LEASAT 5,1 20410U 90002B   15287.23857997 -.00000099  00000-0  00000+0 0  9999,2 20410  11.4728  16.8497 0001819 245.8752 211.1000  0.99599364 79587
2,GENERATED VIA SPACE-TRACK.ORG API,2015-10-15T16:18:13,18 SPCS,LEASAT 5,1990-002B,EARTH,TEME,UTC,SGP4,2015-10-14T23:17:55.577760,0.99599545,0.0001839,11.4733,16.8434,245.5169,114.005,0,U,20410,999,7958,0.0,-1.1e-06,0,42354.244,1445.789,35983.898,35968.32,PAYLOAD,LARGE,US,1990-01-09,AFETR,,1940088,101073755,0 LEASAT 5,1 20410U 90002B   15287.97078215 -.00000110 +00000-0 +00000-0 0  9993,2 20410 011.4733 016.8434 0001839 245.5169 114.0050 00.99599545079582
2,GENERATED VIA SPACE-TRACK.ORG API,2015-10-15T10:25:29,18 SPCS,LEASAT 5,1990-002B,EARTH,TEME,UTC,SGP4,2015-10-15T06:06:38.715264,0.99599644,0.0001822,11.4735,16.8409,246.3243,214.9734,0,U,20410,999,7959,0.0,-1.15e-06,0,42354.216,1445.788,35983.798,35968.364,PAYLOAD,LARGE,US,1990-01-09,AFETR,,1940013,101068756,0 LEASAT 5,1 20410U 90002B   15288.25461476 -.00000115  00000-0  00000+0 0  9994,2 20410  11.4735  16.8409 0001822 246.3243 214.9734  0.99599644 79590
2,GENERATED VIA SPACE-TRACK.ORG API,2015-10-16T14:31:57,18 SPCS,LEASAT 5,1990-002B,EARTH,TEME,UTC,SGP4,2015-10-16T06:07:48.971424,0.99599869,0.0001786,11.4741,16.8321,246.717,213.4457,0,U,20410,999,7960,0.0,-1.3e-06,0,42354.152,1445.785,35983.582,35968.453,PAYLOAD,LARGE,US,1990-01-09,AFETR,,1940444,101087226,0 LEASAT 5,1 20410U 90002B   15289.25542791 -.00000130  00000-0  00000+0 0  9992,2 20410  11.4741  16.8321 0001786 246.7170 213.4457  0.99599869 79609
2,GENERATED VIA SPACE-TRACK.ORG API,2015-10-17T22:30:49,18 SPCS,LEASAT 5,1990-002B,EARTH,TEME,UTC,SGP4,2015-10-17T18:48:22.493952,0.99600126,0.0001774,11.475,16.8187,245.3985,42.7247,0,U,20410,999,7961,0.0,-1.54e-06,0,42354.079,1445.781,35983.458,35968.431,PAYLOAD,LARGE,US,1990-01-09,AFETR,,1941106,101117365,0 LEASAT 5,1 20410U 90002B   15290.78359368 -.00000154  00000-0  00000+0 0  9994,2 20410  11.4750  16.8187 0001774 245.3985  42.7247  0.99600126 79615
2,GENERATED VIA SPACE-TRACK.ORG API,2015-10-19T17:18:13,18 SPCS,LEASAT 5,1990-002B,EARTH,TEME,UTC,SGP4,2015-10-18T06:55:09.732576,0.99600185,0.0001726,11.4753,16.8141,245.078,224.0225,0,U,20410,999,7962,0.0,-1.62e-06,0,42354.062,1445.78,35983.238,35968.617,PAYLOAD,LARGE,US,1990-01-09,AFETR,,1941990,101147778,0 LEASAT 5,1 20410U 90002B   15291.28830709 -.00000162 +00000-0 +00000-0 0  9993,2 20410 011.4753 016.8141 0001726 245.0780 224.0225 00.99600185079622
2,GENERATED VIA SPACE-TRACK.ORG API,2015-10-19T06:31:04,18 SPCS,LEASAT 5,1990-002B,EARTH,TEME,UTC,SGP4,2015-10-19T04:15:12.481056,0.99600257,0.0001718,11.4759,16.8063,244.9297,182.9143,0,U,20410,999,7963,0.0,-1.76e-06,0,42354.042,1445.779,35983.183,35968.631,PAYLOAD,LARGE,US,1990-01-09,AFETR,,1941725,101138517,0 LEASAT 5,1 20410U 90002B   15292.17722779 -.00000176  00000-0  00000+0 0  9993,2 20410  11.4759  16.8063 0001718 244.9297 182.9143  0.99600257 79635
2,GENERATED VIA SPACE-TRACK.ORG API,2015-10-20T16:02:34,18 SPCS,LEASAT 5,1990-002B,EARTH,TEME,UTC,SGP4,2015-10-19T17:47:51.235872,0.99600295,0.0001712,11.4762,16.8014,244.2609,25.9402,0,U,20410,999,7963,0.0,-1.84e-06,0,42354.031,1445.778,35983.147,35968.645,PAYLOAD,LARGE,US,1990-01-09,AFETR,,1942500,101165895,0 LEASAT 5,1 20410U 90002B   15292.74156523 -.00000184 +00000-0 +00000-0 0  9994,2 20410 011.4762 016.8014 0001712 244.2609 025.9402 00.99600295079635
2,GENERATED VIA SPACE-TRACK.ORG API,2015-10-20T14:35:37,18 SPCS,LEASAT 5,1990-002B,EARTH,TEME,UTC,SGP4,2015-10-20T07:26:39.443136,0.99600305,0.0001707,11.4766,16.7964,243.8859,230.2048,0,U,20410,999,7964,0.0,-1.93e-06,0,42354.028,1445.778,35983.123,35968.664,PAYLOAD,LARGE,US,1990-01-09,AFETR,,1942411,101160209,0 LEASAT 5,1 20410U 90002B   15293.31017874 -.00000193  00000-0  00000+0 0  9992,2 20410  11.4766  16.7964 0001707 243.8859 230.2048  0.99600305 79648
2,GENERATED VIA SPACE-TRACK.ORG API,2015-10-21T14:34:38,18 SPCS,LEASAT 5,1990-002B,EARTH,TEME,UTC,SGP4,2015-10-21T07:52:23.902752,0.9960029,0.0001742,11.4772,16.7875,243.7993,235.2738,0,U,20410,999,7965,0.0,-2.08e-06,0,42354.033,1445.778,35983.276,35968.52,PAYLOAD,LARGE,US,1990-01-09,AFETR,,1942845,101177879,0 LEASAT 5,1 20410U 90002B   15294.32805443 -.00000208  00000-0  00000+0 0  9998,2 20410  11.4772  16.7875 0001742 243.7993 235.2738  0.99600290 79658
2,GENERATED VIA SPACE-TRACK.ORG API,2015-10-22T11:25:24,18 SPCS,LEASAT 5,1990-002B,EARTH,TEME,UTC,SGP4,2015-10-22T02:43:33.319776,0.99599996,0.0002187,11.4779,16.7826,247.3781,153.3467,0,U,20410,999,7966,0.0,-2.19e-06,0,42354.116,1445.783,35985.244,35966.718,PAYLOAD,LARGE,US,1990-01-09,AFETR,,1943247,101194527,0 LEASAT 5,1 20410U 90002B   15295.11358009 -.00000219  00000-0  00000+0 0  9999,2 20410  11.4779  16.7826 0002187 247.3781 153.3467  0.99599996 79660
2,GENERATED VIA SPACE-TRACK.ORG API,2015-10-23T15:26:25,18 SPCS,LEASAT 5,1990-002B,EARTH,TEME,UTC,SGP4,2015-10-22T20:23:00.505824,0.99599962,0.000219,11.4784,16.7762,247.8998,56.6385,0,U,20410,999,7967,0.0,-2.28e-06,0,42354.126,1445.783,35985.266,35966.715,PAYLOAD,LARGE,US,1990-01-09,AFETR,,1943880,101222075,0 LEASAT 5,1 20410U 90002B   15295.84931141 -.00000228 +00000-0 +00000-0 0  9994,2 20410 011.4784 016.7762 0002190 247.8998 056.6385 00.99599962079672
2,GENERATED VIA SPACE-TRACK.ORG API,2015-10-23T06:32:05,18 SPCS,LEASAT 5,1990-002B,EARTH,TEME,UTC,SGP4,2015-10-23T05:20:00.733344,0.99599935,0.0002199,11.4786,16.773,248.2836,189.9736,0,U,20410,999,7967,0.0,-2.34e-06,0,42354.133,1445.784,35985.312,35966.685,PAYLOAD,LARGE,US,1990-01-09,AFETR,,1943661,101213632,0 LEASAT 5,1 20410U 90002B   15296.22223071 -.00000234  00000-0  00000+0 0  9999,2 20410  11.4786  16.7730 0002199 248.2836 189.9736  0.99599935 79674
2,GENERATED VIA SPACE-TRACK.ORG API,2015-10-24T15:08:27,18 SPCS,LEASAT 5,1990-002B,EARTH,TEME,UTC,SGP4,2015-10-23T19:06:50.720832,0.99599888,0.0002196,11.479,16.7681,248.5326,35.6133,0,U,20410,999,7968,0.0,-2.41e-06,0,42354.147,1445.784,35985.313,35966.711,PAYLOAD,LARGE,US,1990-01-09,AFETR,,1944293,101239611,0 LEASAT 5,1 20410U 90002B   15296.79642038 -.00000241 +00000-0 +00000-0 0  9998,2 20410 011.4790 016.7681 0002196 248.5326 035.6133 00.99599888079684
2,GENERATED VIA SPACE-TRACK.ORG API,2015-10-24T14:38:34,18 SPCS,LEASAT 5,1990-002B,EARTH,TEME,UTC,SGP4,2015-10-24T06:55:24.900960,0.99599836,0.0002207,11.4793,16.7639,248.9869,211.5992,0,U,20410,999,7968,0.0,-2.47e-06,0,42354.161,1445.785,35985.374,35966.679,PAYLOAD,LARGE,US,1990-01-09,AFETR,,1944250,101235056,0 LEASAT 5,1 20410U 90002B   15297.28848265 -.00000247  00000-0  00000+0 0  9998,2 20410  11.4793  16.7639 0002207 248.9869 211.5992  0.99599836 79680
2,GENERATED VIA SPACE-TRACK.ORG API,2015-10-25T15:34:03,18 SPCS,LEASAT 5,1990-002B,EARTH,TEME,UTC,SGP4,2015-10-24T21:03:18.166176,0.99599765,0.0002204,11.4796,16.7588,249.0401,62.6774,0,U,20410,999,7969,0.0,-2.54e-06,0,42354.182,1445.786,35985.381,35966.712,PAYLOAD,LARGE,US,1990-01-09,AFETR,,1944742,101258502,0 LEASAT 5,1 20410U 90002B   15297.87729359 -.00000254 +00000-0 +00000-0 0  9994,2 20410 011.4796 016.7588 0002204 249.0401 062.6774 00.99599765079692
2,GENERATED VIA SPACE-TRACK.ORG API,2015-10-25T14:40:22,18 SPCS,LEASAT 5,1990-002B,EARTH,TEME,UTC,SGP4,2015-10-25T08:59:32.324352,0.99599696,0.0002209,11.48,16.7545,249.5341,240.5323,0,U,20410,999,7969,0.0,-2.59e-06,0,42354.201,1445.787,35985.422,35966.71,PAYLOAD,LARGE,US,1990-01-09,AFETR,,1944660,101252929,0 LEASAT 5,1 20410U 90002B   15298.37467968 -.00000259  00000-0  00000+0 0  9999,2 20410  11.4800  16.7545 0002209 249.5341 240.5323  0.99599696 79694
2,GENERATED VIA SPACE-TRACK.ORG API,2015-10-26T22:33:18,18 SPCS,LEASAT 5,1990-002B,EARTH,TEME,UTC,SGP4,2015-10-26T20:05:00.193920,0.99599449,0.0002213,11.4809,16.7419,249.7398,44.6045,0,U,20410,999,7971,0.0,-2.74e-06,0,42354.271,1445.791,35985.509,35966.763,PAYLOAD,LARGE,US,1990-01-09,AFETR,,1945277,101283692,0 LEASAT 5,1 20410U 90002B   15299.83680780 -.00000274  00000-0  00000+0 0  9997,2 20410  11.4809  16.7419 0002213 249.7398  44.6045  0.99599449 79715
2,GENERATED VIA SPACE-TRACK.ORG API,2015-10-28T18:02:04,18 SPCS,LEASAT 5,1990-002B,EARTH,TEME,UTC,SGP4,2015-10-27T08:09:13.616352,0.9959935,0.0002224,11.4812,16.7375,250.0653,224.6163,0,U,20410,999,7972,0.0,-2.78e-06,0,42354.299,1445.792,35985.584,35966.745,PAYLOAD,LARGE,US,1990-01-09,AFETR,,1946099,101314114,0 LEASAT 5,1 20410U 90002B   15300.33974093 -.00000278 +00000-0 +00000-0 0  9993,2 20410 011.4812 016.7375 0002224 250.0653 224.6163 00.99599350079724
